[
    {
        "Altitude(m)": 607911.0249842196,
        "Argument of Periapsis(deg)": 0.0,
        "Eccentricity": 0.0,
        "Inclination(deg)": 60.0,
        "Latitude(deg)": -14.293034136720483,
        "Longitude(deg)": -66.55734015270565,
        "Mean Anomaly(deg)": -163.63640000000004,
        "RAAN(deg)": 205.0,
        "Satellite Name": "Test1 914",
        "Satellite Number": 914,
        "Semi-Major Axis(m)": 6980739.136638005,
        "Time(s)": 0
    },
    {
        "Altitude(m)": 608060.2590755525,
        "Argument of Periapsis(deg)": 0.00010418945913296404,
        "Eccentricity": 0.0,
        "Inclination(deg)": 60.0,
        "Latitude(deg)": -14.826695285966194,
        "Longitude(deg)": -66.26873011318511,
        "Mean Anomaly(deg)": -163.0162938545382,
        "RAAN(deg)": 204.99957995086024,
        "Satellite Name": "Test1 914",
        "Satellite Number": 914,
        "Semi-Major Axis(m)": 6980739.136638005,
        "Time(s)": 10
    },
    {
        "Altitude(m)": 608211.9233631807,
        "Argument of Periapsis(deg)": 0.0002083789182659281,
        "Eccentricity": 0.0,
        "Inclination(deg)": 60.0,
        "Latitude(deg)": -15.359840212068667,
        "Longitude(deg)": -65.97851127212726,
        "Mean Anomaly(deg)": -162.39618770907637,
        "RAAN(deg)": 204.99915990172053,
        "Satellite Name": "Test1 914",
        "Satellite Number": 914,
        "Semi-Major Axis(m)": 6980739.136638005,
        "Time(s)": 20
    },
    {
        "Altitude(m)": 608365.969765464,
        "Argument of Periapsis(deg)": 0.00031256837739889213,
        "Eccentricity": 0.0,
        "Inclination(deg)": 60.0,
        "Latitude(deg)": -15.892447705796537,
        "Longitude(deg)": -65.68661616187708,
        "Mean Anomaly(deg)": -161.7760815636145,
        "RAAN(deg)": 204.99873985258077,
        "Satellite Name": "Test1 914",
        "Satellite Number": 914,
        "Semi-Major Axis(m)": 6980739.136638005,
        "Time(s)": 30
    },
    {
        "Altitude(m)": 608522.3490032305,
        "Argument of Periapsis(deg)": 0.0004167578365318562,
        "Eccentricity": 0.0,
        "Inclination(deg)": 60.0,
        "Latitude(deg)": -16.424496225655314,
        "Longitude(deg)": -65.39297579576233,
        "Mean Anomaly(deg)": -161.15597541815268,
        "RAAN(deg)": 204.99831980344103,
        "Satellite Name": "Test1 914",
        "Satellite Number": 914,
        "Semi-Major Axis(m)": 6980739.136638005,
        "Time(s)": 40
    },
    {
        "Altitude(m)": 608681.0106210903,
        "Argument of Periapsis(deg)": 0.0005209472956648203,
        "Eccentricity": 0.0,
        "Inclination(deg)": 60.0,
        "Latitude(deg)": -16.955963881867582,
        "Longitude(deg)": -65.0975206327652,
        "Mean Anomaly(deg)": -160.53586927269083,
        "RAAN(deg)": 204.99789975430127,
        "Satellite Name": "Test1 914",
        "Satellite Number": 914,
        "Semi-Major Axis(m)": 6980739.136638005,
        "Time(s)": 50
    },
    {
        "Altitude(m)": 608841.9030092831,
        "Argument of Periapsis(deg)": 0.0006251367547977843,
        "Eccentricity": 0.0,
        "Inclination(deg)": 60.0,
        "Latitude(deg)": -17.48682841987123,
        "Longitude(deg)": -64.80018002848148,
        "Mean Anomaly(deg)": -159.915763127229,
        "RAAN(deg)": 204.99747970516157,
        "Satellite Name": "Test1 914",
        "Satellite Number": 914,
        "Semi-Major Axis(m)": 6980739.136638005,
        "Time(s)": 60
    },
    {
        "Altitude(m)": 609004.9734261282,
        "Argument of Periapsis(deg)": 0.0007293262139307483,
        "Eccentricity": 0.0,
        "Inclination(deg)": 60.0,
        "Latitude(deg)": -18.017067203314507,
        "Longitude(deg)": -64.50088168521755,
        "Mean Anomaly(deg)": -159.2956569817672,
        "RAAN(deg)": 204.99705965602178,
        "Satellite Name": "Test1 914",
        "Satellite Number": 914,
        "Semi-Major Axis(m)": 6980739.136638005,
        "Time(s)": 70
    },
    {
        "Altitude(m)": 609170.1680209511,
        "Argument of Periapsis(deg)": 0.0008335156730637124,
        "Eccentricity": 0.0,
        "Inclination(deg)": 60.0,
        "Latitude(deg)": -18.546657196524478,
        "Longitude(deg)": -64.19955261407509,
        "Mean Anomaly(deg)": -158.67555083630538,
        "RAAN(deg)": 204.99663960688207,
        "Satellite Name": "Test1 914",
        "Satellite Number": 914,
        "Semi-Major Axis(m)": 6980739.136638005,
        "Time(s)": 80
    },
    {
        "Altitude(m)": 609337.4318575955,
        "Argument of Periapsis(deg)": 0.0009377051321966765,
        "Eccentricity": 0.0,
        "Inclination(deg)": 60.0,
        "Latitude(deg)": -19.075574946422503,
        "Longitude(deg)": -63.89611858325479,
        "Mean Anomaly(deg)": -158.05544469084356,
        "RAAN(deg)": 204.9962195577423,
        "Satellite Name": "Test1 914",
        "Satellite Number": 914,
        "Semi-Major Axis(m)": 6980739.136638005,
        "Time(s)": 90
    },
    {
        "Altitude(m)": 609506.7089384175,
        "Argument of Periapsis(deg)": 0.0010418945913296407,
        "Eccentricity": 0.0,
        "Inclination(deg)": 60.0,
        "Latitude(deg)": -19.603796563863433,
        "Longitude(deg)": -63.590503565430126,
        "Mean Anomaly(deg)": -157.43533854538174,
        "RAAN(deg)": 204.99579950860257,
        "Satellite Name": "Test1 914",
        "Satellite Number": 914,
        "Semi-Major Axis(m)": 6980739.136638005,
        "Time(s)": 100
    },
    {
        "Altitude(m)": 609677.9422287984,
        "Argument of Periapsis(deg)": 0.0011460840504626045,
        "Eccentricity": 0.0,
        "Inclination(deg)": 60.0,
        "Latitude(deg)": -20.131297704371836,
        "Longitude(deg)": -63.282630697050074,
        "Mean Anomaly(deg)": -156.81523239991986,
        "RAAN(deg)": 204.9953794594628,
        "Satellite Name": "Test1 914",
        "Satellite Number": 914,
        "Semi-Major Axis(m)": 6980739.136638005,
        "Time(s)": 110
    },
    {
        "Altitude(m)": 609851.0736821252,
        "Argument of Periapsis(deg)": 0.0012502735095955685,
        "Eccentricity": 0.0,
        "Inclination(deg)": 60.0,
        "Latitude(deg)": -20.658053548248372,
        "Longitude(deg)": -62.972421723801645,
        "Mean Anomaly(deg)": -156.19512625445805,
        "RAAN(deg)": 204.9949594103231,
        "Satellite Name": "Test1 914",
        "Satellite Number": 914,
        "Semi-Major Axis(m)": 6980739.136638005,
        "Time(s)": 120
    },
    {
        "Altitude(m)": 610026.044265302,
        "Argument of Periapsis(deg)": 0.0013544629687285324,
        "Eccentricity": 0.0,
        "Inclination(deg)": 60.0,
        "Latitude(deg)": -21.184038780018547,
        "Longitude(deg)": -62.659796445095324,
        "Mean Anomaly(deg)": -155.5750201089962,
        "RAAN(deg)": 204.99453936118334,
        "Satellite Name": "Test1 914",
        "Satellite Number": 914,
        "Semi-Major Axis(m)": 6980739.136638005,
        "Time(s)": 130
    },
    {
        "Altitude(m)": 610202.7939846546,
        "Argument of Periapsis(deg)": 0.0014586524278614966,
        "Eccentricity": 0.0,
        "Inclination(deg)": 60.0,
        "Latitude(deg)": -21.70922756719698,
        "Longitude(deg)": -62.34467367043247,
        "Mean Anomaly(deg)": -154.95491396353438,
        "RAAN(deg)": 204.9941193120436,
        "Satellite Name": "Test1 914",
        "Satellite Number": 914,
        "Semi-Major Axis(m)": 6980739.136638005,
        "Time(s)": 140
    },
    {
        "Altitude(m)": 610381.2619123413,
        "Argument of Periapsis(deg)": 0.0015628418869944607,
        "Eccentricity": 0.0,
        "Inclination(deg)": 60.0,
        "Latitude(deg)": -22.23359353833609,
        "Longitude(deg)": -62.02697066189952,
        "Mean Anomaly(deg)": -154.3348078180725,
        "RAAN(deg)": 204.99369926290385,
        "Satellite Name": "Test1 914",
        "Satellite Number": 914,
        "Semi-Major Axis(m)": 6980739.136638005,
        "Time(s)": 150
    },
    {
        "Altitude(m)": 610561.3862131628,
        "Argument of Periapsis(deg)": 0.0016670313461274247,
        "Eccentricity": 0.0,
        "Inclination(deg)": 60.0,
        "Latitude(deg)": -22.757109760329797,
        "Longitude(deg)": -61.70660257565518,
        "Mean Anomaly(deg)": -153.7147016726107,
        "RAAN(deg)": 204.99327921376414,
        "Satellite Name": "Test1 914",
        "Satellite Number": 914,
        "Semi-Major Axis(m)": 6980739.136638005,
        "Time(s)": 160
    },
    {
        "Altitude(m)": 610743.1041718354,
        "Argument of Periapsis(deg)": 0.0017712208052603888,
        "Eccentricity": 0.0,
        "Inclination(deg)": 60.0,
        "Latitude(deg)": -23.279748714942965,
        "Longitude(deg)": -61.38348341528378,
        "Mean Anomaly(deg)": -153.0945955271489,
        "RAAN(deg)": 204.99285916462438,
        "Satellite Name": "Test1 914",
        "Satellite Number": 914,
        "Semi-Major Axis(m)": 6980739.136638005,
        "Time(s)": 170
    },
    {
        "Altitude(m)": 610926.3522206246,
        "Argument of Periapsis(deg)": 0.001875410264393353,
        "Eccentricity": 0.0,
        "Inclination(deg)": 60.0,
        "Latitude(deg)": -23.801482274532795,
        "Longitude(deg)": -61.05752547126696,
        "Mean Anomaly(deg)": -152.47448938168705,
        "RAAN(deg)": 204.99243911548464,
        "Satellite Name": "Test1 914",
        "Satellite Number": 914,
        "Semi-Major Axis(m)": 6980739.136638005,
        "Time(s)": 180
    },
    {
        "Altitude(m)": 611111.0659674155,
        "Argument of Periapsis(deg)": 0.0019795997235263173,
        "Eccentricity": 0.0,
        "Inclination(deg)": 60.0,
        "Latitude(deg)": -24.322281676930018,
        "Longitude(deg)": -60.728638759454654,
        "Mean Anomaly(deg)": -151.85438323622526,
        "RAAN(deg)": 204.99201906634488,
        "Satellite Name": "Test1 914",
        "Satellite Number": 914,
        "Semi-Major Axis(m)": 6980739.136638005,
        "Time(s)": 190
    }
]